STARLINK-36411          
1 67608U 26018V   26048.89009750  .00096615  00000+0  49933-3 0  9999
2 67608  97.2837 113.7591 0001060  76.3602 283.7784 15.80826979  4191
STARLINK-36312          
1 67609U 26018W   26048.91668981 -.00100649  00000+0 -68111-3 0  9994
2 67609  97.2839 113.7884 0001317  76.5313  69.1726 15.75216391  4226
STARLINK-36387          
1 67610U 26018X   26048.82416203  .00165831  00000+0  84860-3 0  9995
2 67610  97.2838 113.6953 0001656  92.2453 267.9005 15.80855430  4181
STARLINK-36636          
1 67611U 26018Y   26048.75978065  .00626510  00000+0  30083-2 0  9990
2 67611  97.2833 113.6224 0001119  65.8236 294.3149 15.81063034  4171
STARLINK-36407          
1 67612U 26018Z   26048.94910545 -.00782720  00000+0 -48137-2 0  9998
2 67612  97.2835 113.8323 0000974 149.2888 210.8437 15.79173776  4258
STARLINK-36597          
1 67613U 26018AA  26048.88445567  .00124324  00000+0  64015-3 0  9991
2 67613  97.2842 113.7662 0001562  93.6362 266.5085 15.80830682  4193
NEONSAT-1A              
1 67614U 26019A   26048.86904144  .00003467  00000+0  23135-3 0  9994
2 67614  97.4103 173.1592 0012086 238.6168 121.3879 15.07621014  2830
ELECTRON KICK STAGE R/B 
1 67616U 26019C   26048.76223128  .00433789  56734-4  18991-2 0  9998
2 67616  97.4041 174.5200 0168277 194.7657 164.8658 15.66392022  2918
STARLINK-36548          
1 67617U 26020A   26048.91338970  .00249950  00000+0  14905-2 0  9996
2 67617  42.9968 262.4754 0002295 292.4631  67.5995 15.76404635  2961
STARLINK-36601          
1 67618U 26020B   26048.94755960  .00280034  00000+0  12857-2 0  9994
2 67618  42.9961 261.8555 0002317 242.2644 117.7993 15.82085204  2970
STARLINK-36119          
1 67619U 26020C   26048.91119516  .00241862  00000+0  14414-2 0  9990
2 67619  42.9968 262.4574 0001990 246.4453 113.6208 15.76441823  2965
STARLINK-36607          
1 67620U 26020D   26048.94583094  .00639263  00000+0  27681-2 0  9997
2 67620  42.9966 261.8408 0002738 285.0564  75.0004 15.82415698  2971
