CCSDS_OMM_VERS = 2.0
CREATION_DATE  = 
ORIGINATOR     = 

OBJECT_NAME    = STARLINK-36411
OBJECT_ID      = 2026-018V
CENTER_NAME    = EARTH
REF_FRAME      = TEME
TIME_SYSTEM    = UTC
MEAN_ELEMENT_THEORY = SGP/SGP4

EPOCH          = 2026-02-17T21:21:44.424000
MEAN_MOTION    = 15.80826979
ECCENTRICITY   = .000106
INCLINATION    = 97.2837
RA_OF_ASC_NODE = 113.7591
ARG_OF_PERICENTER = 76.3602
MEAN_ANOMALY   = 283.7784

EPHEMERIS_TYPE = 0
CLASSIFICATION_TYPE = U
NORAD_CAT_ID   = 67608
ELEMENT_SET_NO = 999
REV_AT_EPOCH   = 419
BSTAR          = .49932652E-3
MEAN_MOTION_DOT = .96615E-3
MEAN_MOTION_DDOT = 0

CCSDS_OMM_VERS = 2.0
CREATION_DATE  = 
ORIGINATOR     = 

OBJECT_NAME    = STARLINK-36312
OBJECT_ID      = 2026-018W
CENTER_NAME    = EARTH
REF_FRAME      = TEME
TIME_SYSTEM    = UTC
MEAN_ELEMENT_THEORY = SGP/SGP4

EPOCH          = 2026-02-17T22:00:01.999584
MEAN_MOTION    = 15.75216391
ECCENTRICITY   = .00013172
INCLINATION    = 97.2839
RA_OF_ASC_NODE = 113.7884
ARG_OF_PERICENTER = 76.5313
MEAN_ANOMALY   = 69.1726

EPHEMERIS_TYPE = 0
CLASSIFICATION_TYPE = U
NORAD_CAT_ID   = 67609
ELEMENT_SET_NO = 999
REV_AT_EPOCH   = 422
BSTAR          = -.68111021E-3
MEAN_MOTION_DOT = -.100649E-2
MEAN_MOTION_DDOT = 0

CCSDS_OMM_VERS = 2.0
CREATION_DATE  = 
ORIGINATOR     = 

OBJECT_NAME    = STARLINK-36387
OBJECT_ID      = 2026-018X
CENTER_NAME    = EARTH
REF_FRAME      = TEME
TIME_SYSTEM    = UTC
MEAN_ELEMENT_THEORY = SGP/SGP4

EPOCH          = 2026-02-17T19:46:47.599392
MEAN_MOTION    = 15.80855430
ECCENTRICITY   = .00016566
INCLINATION    = 97.2838
RA_OF_ASC_NODE = 113.6953
ARG_OF_PERICENTER = 92.2453
MEAN_ANOMALY   = 267.9005

EPHEMERIS_TYPE = 0
CLASSIFICATION_TYPE = U
NORAD_CAT_ID   = 67610
ELEMENT_SET_NO = 999
REV_AT_EPOCH   = 418
BSTAR          = .8485982E-3
MEAN_MOTION_DOT = .165831E-2
MEAN_MOTION_DDOT = 0

CCSDS_OMM_VERS = 2.0
CREATION_DATE  = 
ORIGINATOR     = 

OBJECT_NAME    = STARLINK-36636
OBJECT_ID      = 2026-018Y
CENTER_NAME    = EARTH
REF_FRAME      = TEME
TIME_SYSTEM    = UTC
MEAN_ELEMENT_THEORY = SGP/SGP4

EPOCH          = 2026-02-17T18:14:05.048160
MEAN_MOTION    = 15.81063034
ECCENTRICITY   = .0001119
INCLINATION    = 97.2833
RA_OF_ASC_NODE = 113.6224
ARG_OF_PERICENTER = 65.8236
MEAN_ANOMALY   = 294.3149

EPHEMERIS_TYPE = 0
CLASSIFICATION_TYPE = U
NORAD_CAT_ID   = 67611
ELEMENT_SET_NO = 999
REV_AT_EPOCH   = 417
BSTAR          = .30082589E-2
MEAN_MOTION_DOT = .62651E-2
MEAN_MOTION_DDOT = 0

CCSDS_OMM_VERS = 2.0
CREATION_DATE  = 
ORIGINATOR     = 

OBJECT_NAME    = STARLINK-36407
OBJECT_ID      = 2026-018Z
CENTER_NAME    = EARTH
REF_FRAME      = TEME
TIME_SYSTEM    = UTC
MEAN_ELEMENT_THEORY = SGP/SGP4

EPOCH          = 2026-02-17T22:46:42.710880
MEAN_MOTION    = 15.79173776
ECCENTRICITY   = .00009745
INCLINATION    = 97.2835
RA_OF_ASC_NODE = 113.8323
ARG_OF_PERICENTER = 149.2888
MEAN_ANOMALY   = 210.8437

EPHEMERIS_TYPE = 0
CLASSIFICATION_TYPE = U
NORAD_CAT_ID   = 67612
ELEMENT_SET_NO = 999
REV_AT_EPOCH   = 425
BSTAR          = -.48136924E-2
MEAN_MOTION_DOT = -.78272E-2
MEAN_MOTION_DDOT = 0

CCSDS_OMM_VERS = 2.0
CREATION_DATE  = 
ORIGINATOR     = 

OBJECT_NAME    = STARLINK-36597
OBJECT_ID      = 2026-018AA
CENTER_NAME    = EARTH
REF_FRAME      = TEME
TIME_SYSTEM    = UTC
MEAN_ELEMENT_THEORY = SGP/SGP4

EPOCH          = 2026-02-17T21:13:36.969888
MEAN_MOTION    = 15.80830682
ECCENTRICITY   = .00015622
INCLINATION    = 97.2842
RA_OF_ASC_NODE = 113.7662
ARG_OF_PERICENTER = 93.6362
MEAN_ANOMALY   = 266.5085

EPHEMERIS_TYPE = 0
CLASSIFICATION_TYPE = U
NORAD_CAT_ID   = 67613
ELEMENT_SET_NO = 999
REV_AT_EPOCH   = 419
BSTAR          = .64015363E-3
MEAN_MOTION_DOT = .124324E-2
MEAN_MOTION_DDOT = 0

CCSDS_OMM_VERS = 2.0
CREATION_DATE  = 
ORIGINATOR     = 

OBJECT_NAME    = NEONSAT-1A
OBJECT_ID      = 2026-019A
CENTER_NAME    = EARTH
REF_FRAME      = TEME
TIME_SYSTEM    = UTC
MEAN_ELEMENT_THEORY = SGP/SGP4

EPOCH          = 2026-02-17T20:51:25.180416
MEAN_MOTION    = 15.07621014
ECCENTRICITY   = .00120869
INCLINATION    = 97.4103
RA_OF_ASC_NODE = 173.1592
ARG_OF_PERICENTER = 238.6168
MEAN_ANOMALY   = 121.3879

EPHEMERIS_TYPE = 0
CLASSIFICATION_TYPE = U
NORAD_CAT_ID   = 67614
ELEMENT_SET_NO = 999
REV_AT_EPOCH   = 283
BSTAR          = .23134921E-3
MEAN_MOTION_DOT = .3467E-4
MEAN_MOTION_DDOT = 0

CCSDS_OMM_VERS = 2.0
CREATION_DATE  = 
ORIGINATOR     = 

OBJECT_NAME    = ELECTRON KICK STAGE R/B
OBJECT_ID      = 2026-019C
CENTER_NAME    = EARTH
REF_FRAME      = TEME
TIME_SYSTEM    = UTC
MEAN_ELEMENT_THEORY = SGP/SGP4

EPOCH          = 2026-02-17T18:17:36.782592
MEAN_MOTION    = 15.66392022
ECCENTRICITY   = .01682778
INCLINATION    = 97.4041
RA_OF_ASC_NODE = 174.5200
ARG_OF_PERICENTER = 194.7657
MEAN_ANOMALY   = 164.8658

EPHEMERIS_TYPE = 0
CLASSIFICATION_TYPE = U
NORAD_CAT_ID   = 67616
ELEMENT_SET_NO = 999
REV_AT_EPOCH   = 291
BSTAR          = .18990564E-2
MEAN_MOTION_DOT = .433789E-2
MEAN_MOTION_DDOT = .56733954E-4

CCSDS_OMM_VERS = 2.0
CREATION_DATE  = 
ORIGINATOR     = 

OBJECT_NAME    = STARLINK-36548
OBJECT_ID      = 2026-020A
CENTER_NAME    = EARTH
REF_FRAME      = TEME
TIME_SYSTEM    = UTC
MEAN_ELEMENT_THEORY = SGP/SGP4

EPOCH          = 2026-02-17T21:55:16.870080
MEAN_MOTION    = 15.76404635
ECCENTRICITY   = .00022955
INCLINATION    = 42.9968
RA_OF_ASC_NODE = 262.4754
ARG_OF_PERICENTER = 292.4631
MEAN_ANOMALY   = 67.5995

EPHEMERIS_TYPE = 0
CLASSIFICATION_TYPE = U
NORAD_CAT_ID   = 67617
ELEMENT_SET_NO = 999
REV_AT_EPOCH   = 296
BSTAR          = .14905064E-2
MEAN_MOTION_DOT = .24995E-2
MEAN_MOTION_DDOT = 0

CCSDS_OMM_VERS = 2.0
CREATION_DATE  = 
ORIGINATOR     = 

OBJECT_NAME    = STARLINK-36601
OBJECT_ID      = 2026-020B
CENTER_NAME    = EARTH
REF_FRAME      = TEME
TIME_SYSTEM    = UTC
MEAN_ELEMENT_THEORY = SGP/SGP4

EPOCH          = 2026-02-17T22:44:29.149440
MEAN_MOTION    = 15.82085204
ECCENTRICITY   = .00023175
INCLINATION    = 42.9961
RA_OF_ASC_NODE = 261.8555
ARG_OF_PERICENTER = 242.2644
MEAN_ANOMALY   = 117.7993

EPHEMERIS_TYPE = 0
CLASSIFICATION_TYPE = U
NORAD_CAT_ID   = 67618
ELEMENT_SET_NO = 999
REV_AT_EPOCH   = 297
BSTAR          = .12856645E-2
MEAN_MOTION_DOT = .280034E-2
MEAN_MOTION_DDOT = 0

CCSDS_OMM_VERS = 2.0
CREATION_DATE  = 
ORIGINATOR     = 

OBJECT_NAME    = STARLINK-36119
OBJECT_ID      = 2026-020C
CENTER_NAME    = EARTH
REF_FRAME      = TEME
TIME_SYSTEM    = UTC
MEAN_ELEMENT_THEORY = SGP/SGP4

EPOCH          = 2026-02-17T21:52:07.261824
MEAN_MOTION    = 15.76441823
ECCENTRICITY   = .00019904
INCLINATION    = 42.9968
RA_OF_ASC_NODE = 262.4574
ARG_OF_PERICENTER = 246.4453
MEAN_ANOMALY   = 113.6208

EPHEMERIS_TYPE = 0
CLASSIFICATION_TYPE = U
NORAD_CAT_ID   = 67619
ELEMENT_SET_NO = 999
REV_AT_EPOCH   = 296
BSTAR          = .14414118E-2
MEAN_MOTION_DOT = .241862E-2
MEAN_MOTION_DDOT = 0

CCSDS_OMM_VERS = 2.0
CREATION_DATE  = 
ORIGINATOR     = 

OBJECT_NAME    = STARLINK-36607
OBJECT_ID      = 2026-020D
CENTER_NAME    = EARTH
REF_FRAME      = TEME
TIME_SYSTEM    = UTC
MEAN_ELEMENT_THEORY = SGP/SGP4

EPOCH          = 2026-02-17T22:41:59.793216
MEAN_MOTION    = 15.82415698
ECCENTRICITY   = .00027388
INCLINATION    = 42.9966
RA_OF_ASC_NODE = 261.8408
ARG_OF_PERICENTER = 285.0564
MEAN_ANOMALY   = 75.0004

EPHEMERIS_TYPE = 0
CLASSIFICATION_TYPE = U
NORAD_CAT_ID   = 67620
ELEMENT_SET_NO = 999
REV_AT_EPOCH   = 297
BSTAR          = .27681309E-2
MEAN_MOTION_DOT = .639263E-2
MEAN_MOTION_DDOT = 0

